[{"OBJECT_NAME":"KAZSTSAT","OBJECT_ID":"2018-099AB","EPOCH":"2026-03-09T14:51:18.118944","MEAN_MOTION":14.99620503,"ECCENTRICITY":0.0006528,"INCLINATION":97.4396,"RA_OF_ASC_NODE":105.0128,"ARG_OF_PERICENTER":11.1145,"MEAN_ANOMALY":349.0222,"EPHEMERIS_TYPE":0,"CLASSIFICATION_TYPE":"U","NORAD_CAT_ID":43783,"ELEMENT_SET_NO":999,"REV_AT_EPOCH":39638,"BSTAR":0.00011446,"MEAN_MOTION_DOT":1.354e-5,"MEAN_MOTION_DDOT":0},{"OBJECT_NAME":"STARLINK-5299","OBJECT_ID":"2023-010J","EPOCH":"2026-03-09T22:43:24.526560","MEAN_MOTION":14.98331702,"ECCENTRICITY":0.00029393,"INCLINATION":70.0006,"RA_OF_ASC_NODE":43.8418,"ARG_OF_PERICENTER":268.4214,"MEAN_ANOMALY":91.6608,"EPHEMERIS_TYPE":0,"CLASSIFICATION_TYPE":"U","NORAD_CAT_ID":55277,"ELEMENT_SET_NO":999,"REV_AT_EPOCH":17282,"BSTAR":4.9927722e-5,"MEAN_MOTION_DOT":5.03e-6,"MEAN_MOTION_DDOT":0}]
